{
  "norad_id": 40367,
  "name": "FENGYUN 2G",
  "history": [
    {
      "epoch": "2026-03-28T22:06:15.984576Z",
      "apogee_km": 35796.39590775425,
      "perigee_km": 35781.42829200576,
      "latitude_deg": -0.32182205533267505,
      "longitude_deg": 99.46063633641081,
      "height_km": 35782.385701403095,
      "semi_major_axis_km": 42167.04909988001,
      "eccentricity": 0.00017748,
      "inclination_deg": 5.4366,
      "raan_deg": 73.7708,
      "arg_perigee_deg": 147.9808,
      "mean_anomaly_deg": 35.5937,
      "mean_motion_rev_day": 1.0026352
    },
    {
      "epoch": "2026-03-28T22:06:38.552256Z",
      "apogee_km": 35796.396751095235,
      "perigee_km": 35781.42744866478,
      "latitude_deg": -0.33074235013341924,
      "longitude_deg": 99.46035368152347,
      "height_km": 35782.39308474544,
      "semi_major_axis_km": 42167.04909988001,
      "eccentricity": 0.0001775,
      "inclination_deg": 5.4366,
      "raan_deg": 73.7708,
      "arg_perigee_deg": 147.9858,
      "mean_anomaly_deg": 35.6831,
      "mean_motion_rev_day": 1.0026352
    },
    {
      "epoch": "2026-03-29T10:04:56.754912Z",
      "apogee_km": 35796.41239081357,
      "perigee_km": 35781.49536074536,
      "latitude_deg": 0.3332241600492966,
      "longitude_deg": 99.41775971337631,
      "height_km": 35794.4788670685,
      "semi_major_axis_km": 42167.09087577947,
      "eccentricity": 0.00017688,
      "inclination_deg": 5.438,
      "raan_deg": 73.7651,
      "arg_perigee_deg": 148.3829,
      "mean_anomaly_deg": 215.3448,
      "mean_motion_rev_day": 1.00263371
    },
    {
      "epoch": "2026-03-30T10:02:32.765856Z",
      "apogee_km": 35796.4325656943,
      "perigee_km": 35781.64285083712,
      "latitude_deg": 0.36740312800314806,
      "longitude_deg": 99.38482269413046,
      "height_km": 35794.48311191548,
      "semi_major_axis_km": 42167.17470826571,
      "eccentricity": 0.00017537,
      "inclination_deg": 5.4408,
      "raan_deg": 73.7538,
      "arg_perigee_deg": 148.4155,
      "mean_anomaly_deg": 215.6778,
      "mean_motion_rev_day": 1.00263072
    },
    {
      "epoch": "2026-03-30T22:01:15.799872Z",
      "apogee_km": 35796.346867124266,
      "perigee_km": 35781.8092980524,
      "latitude_deg": -0.3854328779338053,
      "longitude_deg": 99.39545737207874,
      "height_km": 35782.81461110443,
      "semi_major_axis_km": 42167.21508258834,
      "eccentricity": 0.00017238,
      "inclination_deg": 5.4421,
      "raan_deg": 73.7482,
      "arg_perigee_deg": 147.5495,
      "mean_anomaly_deg": 36.7056,
      "mean_motion_rev_day": 1.00262928
    },
    {
      "epoch": "2026-03-31T20:16:07.449888Z",
      "apogee_km": 35796.07229470945,
      "perigee_km": 35782.24985440061,
      "latitude_deg": 1.9719808729588555,
      "longitude_deg": 99.46137114275588,
      "height_km": 35781.66507645335,
      "semi_major_axis_km": 42167.29807455503,
      "eccentricity": 0.0001639,
      "inclination_deg": 5.4446,
      "raan_deg": 73.7377,
      "arg_perigee_deg": 146.6471,
      "mean_anomaly_deg": 12.2182,
      "mean_motion_rev_day": 1.00262632
    },
    {
      "epoch": "2026-04-01T11:40:15.851712Z",
      "apogee_km": 35795.806516154655,
      "perigee_km": 35782.61656953045,
      "latitude_deg": 2.740095331633956,
      "longitude_deg": 99.21597003347046,
      "height_km": 35791.19442697624,
      "semi_major_axis_km": 42167.348542842556,
      "eccentricity": 0.0001564,
      "inclination_deg": 5.4462,
      "raan_deg": 73.7307,
      "arg_perigee_deg": 145.7694,
      "mean_anomaly_deg": 244.7495,
      "mean_motion_rev_day": 1.00262452
    }
  ]
}